[{"OBJECT_NAME":"STARLINK-36199","OBJECT_ID":"2025-304X","EPOCH":"2026-03-07T07:37:15.696192","MEAN_MOTION":14.98348721,"ECCENTRICITY":0.0003458,"INCLINATION":70.0023,"RA_OF_ASC_NODE":180.2608,"ARG_OF_PERICENTER":269.9471,"MEAN_ANOMALY":90.1292,"EPHEMERIS_TYPE":0,"CLASSIFICATION_TYPE":"U","NORAD_CAT_ID":67213,"ELEMENT_SET_NO":999,"REV_AT_EPOCH":1353,"BSTAR":0.00099583494,"MEAN_MOTION_DOT":0.00011815,"MEAN_MOTION_DDOT":0},{"OBJECT_NAME":"STARLINK-36203","OBJECT_ID":"2025-304Y","EPOCH":"2026-03-07T07:25:30.883008","MEAN_MOTION":14.98339154,"ECCENTRICITY":0.00041596,"INCLINATION":70.0027,"RA_OF_ASC_NODE":180.6348,"ARG_OF_PERICENTER":269.0863,"MEAN_ANOMALY":90.982,"EPHEMERIS_TYPE":0,"CLASSIFICATION_TYPE":"U","NORAD_CAT_ID":67214,"ELEMENT_SET_NO":999,"REV_AT_EPOCH":1352,"BSTAR":0.0006012978,"MEAN_MOTION_DOT":7.091e-5,"MEAN_MOTION_DDOT":0},{"OBJECT_NAME":"STARLINK-36221","OBJECT_ID":"2025-304Z","EPOCH":"2026-03-07T07:13:29.753184","MEAN_MOTION":14.98343305,"ECCENTRICITY":0.00043281,"INCLINATION":70.0026,"RA_OF_ASC_NODE":180.605,"ARG_OF_PERICENTER":267.8676,"MEAN_ANOMALY":92.1987,"EPHEMERIS_TYPE":0,"CLASSIFICATION_TYPE":"U","NORAD_CAT_ID":67215,"ELEMENT_SET_NO":999,"REV_AT_EPOCH":1352,"BSTAR":0.00077216529,"MEAN_MOTION_DOT":9.136e-5,"MEAN_MOTION_DDOT":0},{"OBJECT_NAME":"STARLINK-36212","OBJECT_ID":"2025-304AA","EPOCH":"2026-03-07T07:01:28.349472","MEAN_MOTION":14.98341814,"ECCENTRICITY":0.00034805,"INCLINATION":70.0023,"RA_OF_ASC_NODE":180.5744,"ARG_OF_PERICENTER":270.541,"MEAN_ANOMALY":89.535,"EPHEMERIS_TYPE":0,"CLASSIFICATION_TYPE":"U","NORAD_CAT_ID":67216,"ELEMENT_SET_NO":999,"REV_AT_EPOCH":1352,"BSTAR":0.00063048805,"MEAN_MOTION_DOT":7.44e-5,"MEAN_MOTION_DDOT":0},{"OBJECT_NAME":"STARLINK-36216","OBJECT_ID":"2025-304AB","EPOCH":"2026-03-07T06:00:00.999648","MEAN_MOTION":14.98339357,"ECCENTRICITY":0.00043855,"INCLINATION":70.0013,"RA_OF_ASC_NODE":180.6306,"ARG_OF_PERICENTER":260.6685,"MEAN_ANOMALY":274.2329,"EPHEMERIS_TYPE":0,"CLASSIFICATION_TYPE":"U","NORAD_CAT_ID":67217,"ELEMENT_SET_NO":999,"REV_AT_EPOCH":583,"BSTAR":0.0045733117,"MEAN_MOTION_DOT":0.00054923,"MEAN_MOTION_DDOT":0},{"OBJECT_NAME":"STARLINK-36211","OBJECT_ID":"2025-304AC","EPOCH":"2026-03-07T06:37:26.182272","MEAN_MOTION":14.98347391,"ECCENTRICITY":0.00035055,"INCLINATION":70.0024,"RA_OF_ASC_NODE":180.5154,"ARG_OF_PERICENTER":285.7752,"MEAN_ANOMALY":74.302,"EPHEMERIS_TYPE":0,"CLASSIFICATION_TYPE":"U","NORAD_CAT_ID":67218,"ELEMENT_SET_NO":999,"REV_AT_EPOCH":1349,"BSTAR":0.0011113993,"MEAN_MOTION_DOT":0.00013199,"MEAN_MOTION_DDOT":0},{"OBJECT_NAME":"STARLINK-36490","OBJECT_ID":"2026-002A","EPOCH":"2026-03-07T03:33:43.473312","MEAN_MOTION":15.27605735,"ECCENTRICITY":0.00016747,"INCLINATION":43.0031,"RA_OF_ASC_NODE":339.3292,"ARG_OF_PERICENTER":266.4927,"MEAN_ANOMALY":93.5733,"EPHEMERIS_TYPE":0,"CLASSIFICATION_TYPE":"U","NORAD_CAT_ID":67305,"ELEMENT_SET_NO":999,"REV_AT_EPOCH":1075,"BSTAR":0.00088286643,"MEAN_MOTION_DOT":0.00024131,"MEAN_MOTION_DDOT":0},{"OBJECT_NAME":"STARLINK-36488","OBJECT_ID":"2026-002B","EPOCH":"2026-03-07T03:02:29.056416","MEAN_MOTION":15.27603696,"ECCENTRICITY":0.00012765,"INCLINATION":43.0001,"RA_OF_ASC_NODE":340.0302,"ARG_OF_PERICENTER":255.6164,"MEAN_ANOMALY":104.4546,"EPHEMERIS_TYPE":0,"CLASSIFICATION_TYPE":"U","NORAD_CAT_ID":67306,"ELEMENT_SET_NO":999,"REV_AT_EPOCH":1068,"BSTAR":0.00081686531,"MEAN_MOTION_DOT":0.000223,"MEAN_MOTION_DDOT":0},{"OBJECT_NAME":"STARLINK-36481","OBJECT_ID":"2026-002C","EPOCH":"2026-03-07T02:42:07.840800","MEAN_MOTION":15.27605028,"ECCENTRICITY":0.00018,"INCLINATION":42.9996,"RA_OF_ASC_NODE":339.9163,"ARG_OF_PERICENTER":266.7768,"MEAN_ANOMALY":93.2878,"EPHEMERIS_TYPE":0,"CLASSIFICATION_TYPE":"U","NORAD_CAT_ID":67307,"ELEMENT_SET_NO":999,"REV_AT_EPOCH":1068,"BSTAR":0.0012040729,"MEAN_MOTION_DOT":0.00033046,"MEAN_MOTION_DDOT":0},{"OBJECT_NAME":"STARLINK-36449","OBJECT_ID":"2026-002D","EPOCH":"2026-03-07T02:31:01.404768","MEAN_MOTION":15.27611848,"ECCENTRICITY":0.0001702,"INCLINATION":43.0005,"RA_OF_ASC_NODE":339.8586,"ARG_OF_PERICENTER":257.5654,"MEAN_ANOMALY":102.5007,"EPHEMERIS_TYPE":0,"CLASSIFICATION_TYPE":"U","NORAD_CAT_ID":67308,"ELEMENT_SET_NO":999,"REV_AT_EPOCH":1074,"BSTAR":0.00090058084,"MEAN_MOTION_DOT":0.00024627,"MEAN_MOTION_DDOT":0},{"OBJECT_NAME":"STARLINK-36482","OBJECT_ID":"2026-002E","EPOCH":"2026-03-07T02:25:27.857568","MEAN_MOTION":15.27617069,"ECCENTRICITY":0.00027685,"INCLINATION":43.0047,"RA_OF_ASC_NODE":339.8257,"ARG_OF_PERICENTER":245.6665,"MEAN_ANOMALY":114.3898,"EPHEMERIS_TYPE":0,"CLASSIFICATION_TYPE":"U","NORAD_CAT_ID":67309,"ELEMENT_SET_NO":999,"REV_AT_EPOCH":1068,"BSTAR":0.0010877856,"MEAN_MOTION_DOT":0.00029828,"MEAN_MOTION_DDOT":0},{"OBJECT_NAME":"STARLINK-36491","OBJECT_ID":"2026-002F","EPOCH":"2026-03-07T02:56:55.821984","MEAN_MOTION":15.27605965,"ECCENTRICITY":0.00010869,"INCLINATION":42.9995,"RA_OF_ASC_NODE":339.999,"ARG_OF_PERICENTER":267.8268,"MEAN_ANOMALY":92.2459,"EPHEMERIS_TYPE":0,"CLASSIFICATION_TYPE":"U","NORAD_CAT_ID":67310,"ELEMENT_SET_NO":999,"REV_AT_EPOCH":1068,"BSTAR":0.0010429311,"MEAN_MOTION_DOT":0.00028571,"MEAN_MOTION_DDOT":0},{"OBJECT_NAME":"STARLINK-36495","OBJECT_ID":"2026-002G","EPOCH":"2026-03-07T03:44:49.644096","MEAN_MOTION":15.27579639,"ECCENTRICITY":0.00013468,"INCLINATION":43.0028,"RA_OF_ASC_NODE":339.3851,"ARG_OF_PERICENTER":277.31,"MEAN_ANOMALY":82.7599,"EPHEMERIS_TYPE":0,"CLASSIFICATION_TYPE":"U","NORAD_CAT_ID":67311,"ELEMENT_SET_NO":999,"REV_AT_EPOCH":1085,"BSTAR":0.00070684627,"MEAN_MOTION_DOT":0.00019239,"MEAN_MOTION_DDOT":0},{"OBJECT_NAME":"STARLINK-36485","OBJECT_ID":"2026-002H","EPOCH":"2026-03-07T01:50:18.836160","MEAN_MOTION":15.27588049,"ECCENTRICITY":0.00016732,"INCLINATION":43.003,"RA_OF_ASC_NODE":339.6488,"ARG_OF_PERICENTER":261.8778,"MEAN_ANOMALY":98.1884,"EPHEMERIS_TYPE":0,"CLASSIFICATION_TYPE":"U","NORAD_CAT_ID":67312,"ELEMENT_SET_NO":999,"REV_AT_EPOCH":1068,"BSTAR":0.001095256,"MEAN_MOTION_DOT":0.00030007,"MEAN_MOTION_DDOT":0},{"OBJECT_NAME":"STARLINK-36445","OBJECT_ID":"2026-002J","EPOCH":"2026-03-07T03:08:02.048928","MEAN_MOTION":15.27611078,"ECCENTRICITY":0.00014212,"INCLINATION":43.0028,"RA_OF_ASC_NODE":340.0591,"ARG_OF_PERICENTER":262.3602,"MEAN_ANOMALY":97.7088,"EPHEMERIS_TYPE":0,"CLASSIFICATION_TYPE":"U","NORAD_CAT_ID":67313,"ELEMENT_SET_NO":999,"REV_AT_EPOCH":1084,"BSTAR":0.0015218777,"MEAN_MOTION_DOT":0.00041895,"MEAN_MOTION_DDOT":0},{"OBJECT_NAME":"STARLINK-36476","OBJECT_ID":"2026-002K","EPOCH":"2026-03-07T02:36:34.517376","MEAN_MOTION":15.27616299,"ECCENTRICITY":0.0001333,"INCLINATION":43.0002,"RA_OF_ASC_NODE":339.8873,"ARG_OF_PERICENTER":283.0246,"MEAN_ANOMALY":77.0456,"EPHEMERIS_TYPE":0,"CLASSIFICATION_TYPE":"U","NORAD_CAT_ID":67314,"ELEMENT_SET_NO":999,"REV_AT_EPOCH":1067,"BSTAR":0.0011043613,"MEAN_MOTION_DOT":0.00030286,"MEAN_MOTION_DDOT":0}]
