STARLINK-36199          
1 67213U 25304X   26066.31754278  .00011815  00000+0  99583-3 0  9992
2 67213  70.0023 180.2608 0003458 269.9471  90.1292 14.98348721 13538
STARLINK-36203          
1 67214U 25304Y   26066.30938522  .00007091  00000+0  60130-3 0  9995
2 67214  70.0027 180.6348 0004159 269.0863  90.9820 14.98339154 13527
STARLINK-36221          
1 67215U 25304Z   26066.30103881  .00009136  00000+0  77217-3 0  9994
2 67215  70.0026 180.6050 0004328 267.8676  92.1987 14.98343305 13524
STARLINK-36212          
1 67216U 25304AA  26066.29268923  .00007440  00000+0  63049-3 0  9996
2 67216  70.0023 180.5744 0003480 270.5410  89.5350 14.98341814 13523
STARLINK-36216          
1 67217U 25304AB  26066.25001157  .00054923  00000+0  45733-2 0  9994
2 67217  70.0013 180.6306 0004385 260.6685 274.2329 14.98339357  5830
STARLINK-36211          
1 67218U 25304AC  26066.27599748  .00013199  00000+0  11114-2 0  9991
2 67218  70.0024 180.5154 0003505 285.7752  74.3020 14.98347391 13494
STARLINK-36490          
1 67305U 26002A   26066.14841983  .00024131  00000+0  88287-3 0  9995
2 67305  43.0031 339.3292 0001674 266.4927  93.5733 15.27605735 10753
STARLINK-36488          
1 67306U 26002B   26066.12672519  .00022300  00000+0  81687-3 0  9994
2 67306  43.0001 340.0302 0001276 255.6164 104.4546 15.27603696 10683
STARLINK-36481          
1 67307U 26002C   26066.11259075  .00033046  00000+0  12041-2 0  9998
2 67307  42.9996 339.9163 0001800 266.7768  93.2878 15.27605028 10687
STARLINK-36449          
1 67308U 26002D   26066.10487737  .00024627  00000+0  90058-3 0  9996
2 67308  43.0005 339.8586 0001702 257.5654 102.5007 15.27611848 10744
STARLINK-36482          
1 67309U 26002E   26066.10101687  .00029828  00000+0  10878-2 0  9993
2 67309  43.0047 339.8257 0002768 245.6665 114.3898 15.27617069 10682
STARLINK-36491          
1 67310U 26002F   26066.12286831  .00028571  00000+0  10429-2 0  9998
2 67310  42.9995 339.9990 0001086 267.8268  92.2459 15.27605965 10685
STARLINK-36495          
1 67311U 26002G   26066.15613014  .00019239  00000+0  70685-3 0  9991
2 67311  43.0028 339.3851 0001346 277.3100  82.7599 15.27579639 10851
STARLINK-36485          
1 67312U 26002H   26066.07660690  .00030007  00000+0  10953-2 0  9992
2 67312  43.0030 339.6488 0001673 261.8778  98.1884 15.27588049 10680
STARLINK-36445          
1 67313U 26002J   26066.13057927  .00041895  00000+0  15219-2 0  9990
2 67313  43.0028 340.0591 0001421 262.3602  97.7088 15.27611078 10840
STARLINK-36476          
1 67314U 26002K   26066.10873284  .00030286  00000+0  11044-2 0  9994
2 67314  43.0002 339.8873 0001333 283.0246  77.0456 15.27616299 10679
